{
  "type": "FeatureCollection",
  "features": [
    {
      "type": "Feature",
      "properties": {
        "norad_id": 54741,
        "name": "GALAXY 35 (G-35)",
        "group": "intelsat",
        "lat": -0.023308103407158783,
        "lon": -125.9540656922662,
        "alt_km": 35776.115238156424,
        "timestamp": "2025-12-06T16:45:42.394575+00:00",
        "meta_object_name": "GALAXY 35 (G-35)",
        "meta_object_id": "2022-170A",
        "meta_epoch": "2025-12-06T06:22:31.471392",
        "meta_mean_motion": 1.00271232,
        "meta_eccentricity": 0.00027351,
        "meta_inclination": 0.0155,
        "meta_ra_of_asc_node": 29.9564,
        "meta_arg_of_pericenter": 233.065,
        "meta_mean_anomaly": 174.8296,
        "meta_ephemeris_type": 0,
        "meta_classification_type": "U",
        "meta_norad_cat_id": 54741,
        "meta_element_set_no": 999,
        "meta_rev_at_epoch": 1095,
        "meta_bstar": 0,
        "meta_mean_motion_dot": -1.54e-06,
        "meta_mean_motion_ddot": 0,
        "tle_line1": "1 54741U 22170A   25340.26564203 -.00000154  00000+0  00000+0 0  9994",
        "tle_line2": "2 54741   0.0155  29.9564 0002735 233.0650 174.8296  1.00271232 10955"
      },
      "geometry": {
        "type": "Point",
        "coordinates": [
          -125.9540656922662,
          -0.023308103407158783
        ]
      }
    },
    {
      "type": "Feature",
      "properties": {
        "norad_id": 54742,
        "name": "GALAXY 36 (G-36)",
        "group": "intelsat",
        "lat": -0.03798178669908202,
        "lon": -121.86779861581344,
        "alt_km": 35784.34324957479,
        "timestamp": "2025-12-06T16:45:42.394586+00:00",
        "meta_object_name": "GALAXY 36 (G-36)",
        "meta_object_id": "2022-170B",
        "meta_epoch": "2025-12-06T06:23:38.864256",
        "meta_mean_motion": 1.00269678,
        "meta_eccentricity": 6.459e-05,
        "meta_inclination": 0.0128,
        "meta_ra_of_asc_node": 332.5685,
        "meta_arg_of_pericenter": 295.905,
        "meta_mean_anomaly": 173.7364,
        "meta_ephemeris_type": 0,
        "meta_classification_type": "U",
        "meta_norad_cat_id": 54742,
        "meta_element_set_no": 999,
        "meta_rev_at_epoch": 1083,
        "meta_bstar": 0,
        "meta_mean_motion_dot": 0,
        "meta_mean_motion_ddot": 0,
        "tle_line1": "1 54742U 22170B   25340.26642204  .00000000  00000+0  00000+0 0  9992",
        "tle_line2": "2 54742   0.0128 332.5685 0000645 295.9050 173.7364  1.00269678 10834"
      },
      "geometry": {
        "type": "Point",
        "coordinates": [
          -121.86779861581344,
          -0.03798178669908202
        ]
      }
    },
    {
      "type": "Feature",
      "properties": {
        "norad_id": 57493,
        "name": "GALAXY 37 (G-37)",
        "group": "intelsat",
        "lat": -0.026694487309843504,
        "lon": -159.8710459206398,
        "alt_km": 35781.22400505828,
        "timestamp": "2025-12-06T16:45:42.394598+00:00",
        "meta_object_name": "GALAXY 37 (G-37)",
        "meta_object_id": "2023-112A",
        "meta_epoch": "2025-12-06T06:12:47.403936",
        "meta_mean_motion": 1.00270343,
        "meta_eccentricity": 0.00024156,
        "meta_inclination": 0.0105,
        "meta_ra_of_asc_node": 329.3224,
        "meta_arg_of_pericenter": 290.0794,
        "meta_mean_anomaly": 142.102,
        "meta_ephemeris_type": 0,
        "meta_classification_type": "U",
        "meta_norad_cat_id": 57493,
        "meta_element_set_no": 999,
        "meta_rev_at_epoch": 860,
        "meta_bstar": 0,
        "meta_mean_motion_dot": 5.6e-07,
        "meta_mean_motion_ddot": 0,
        "tle_line1": "1 57493U 23112A   25340.25888199  .00000056  00000+0  00000+0 0  9990",
        "tle_line2": "2 57493   0.0105 329.3224 0002415 290.0794 142.1020  1.00270343  8608"
      },
      "geometry": {
        "type": "Point",
        "coordinates": [
          -159.8710459206398,
          -0.026694487309843504
        ]
      }
    }
  ]
}